[
  {
    "name": "ONEWEB-0068",
    "noradId": "45446",
    "line1": "1 45446U 20020Y   26156.02215784  .00000083  00000+0  19887-3 0  9992",
    "line2": "2 45446  87.8906  23.4838 0001828  77.0993 283.0339 13.11415035301001"
  },
  {
    "name": "ONEWEB-0046",
    "noradId": "45447",
    "line1": "1 45447U 20020Z   26156.01381439  .00000420  00000+0  11493-2 0  9992",
    "line2": "2 45447  87.8901  23.4923 0002055  81.3148 278.8213 13.11416808301018"
  },
  {
    "name": "ONEWEB-0063",
    "noradId": "45448",
    "line1": "1 45448U 20020AA  26155.66128666 -.00000486  00000+0 -14064-2 0  9995",
    "line2": "2 45448  87.8906  23.5605 0002102  94.9954 265.1414 13.11419006301059"
  },
  {
    "name": "ONEWEB-0019",
    "noradId": "45449",
    "line1": "1 45449U 20020AB  26156.00520707  .00000505  00000+0  13880-2 0  9992",
    "line2": "2 45449  87.8901  23.4786 0001664  83.7716 276.3601 13.11417177300944"
  },
  {
    "name": "ONEWEB-0094",
    "noradId": "45450",
    "line1": "1 45450U 20020AC  26155.97720404  .00000017  00000+0  10750-4 0  9998",
    "line2": "2 45450  87.9152   8.2770 0001669  82.4706 277.6615 13.17650376304702"
  },
  {
    "name": "ONEWEB-0087",
    "noradId": "45451",
    "line1": "1 45451U 20020AD  26155.67118527 -.00000746  00000+0 -21394-2 0  9998",
    "line2": "2 45451  87.8956  23.5254 0002212  66.0551 294.0808 13.11417638300947"
  },
  {
    "name": "ONEWEB-0082",
    "noradId": "45452",
    "line1": "1 45452U 20020AE  26155.66780253 -.00000092  00000+0 -29620-3 0  9994",
    "line2": "2 45452  87.8887  23.5528 0002138  72.4755 287.6606 13.11419024301035"
  },
  {
    "name": "ONEWEB-0050",
    "noradId": "45453",
    "line1": "1 45453U 20020AF  26155.72092622  .00002918  00000+0  29810-3 0  9996",
    "line2": "2 45453  88.9297 234.9022 0004985  52.8037 307.3646 14.90327118338525"
  },
  {
    "name": "ONEWEB-0034",
    "noradId": "45454",
    "line1": "1 45454U 20020AG  26156.00919777  .00000570  00000+0  15824-2 0  9999",
    "line2": "2 45454  87.8904  23.4913 0001753  83.8772 276.2556 13.10933659300997"
  },
  {
    "name": "ONEWEB-0060",
    "noradId": "45455",
    "line1": "1 45455U 20020AH  26156.04177840 -.00000508  00000+0 -14686-2 0  9999",
    "line2": "2 45455  87.8895  23.4835 0001892  49.1346 310.9946 13.11416544300951"
  },
  {
    "name": "ONEWEB-0086",
    "noradId": "45456",
    "line1": "1 45456U 20020AJ  26156.02055144  .00003345  00000+0  93957-2 0  9998",
    "line2": "2 45456  87.8906  23.4867 0000949  76.8918 283.2316 13.11442149301015"
  },
  {
    "name": "ONEWEB-0088",
    "noradId": "45457",
    "line1": "1 45457U 20020AK  26155.15930228  .00000548  00000+0  15093-2 0  9994",
    "line2": "2 45457  87.8919  23.6256 0002244  84.8614 275.2770 13.11417195300833"
  },
  {
    "name": "ONEWEB-0102",
    "noradId": "47258",
    "line1": "1 47258U 20100A   26156.01225558  .00000200  00000+0  52197-3 0  9995",
    "line2": "2 47258  87.8941 353.0975 0001470  88.0798 272.0499 13.12443153263134"
  },
  {
    "name": "ONEWEB-0109",
    "noradId": "47259",
    "line1": "1 47259U 20100B   26156.02072351 -.00000111  00000+0 -34386-3 0  9991",
    "line2": "2 47259  87.8951 353.0782 0001722  94.0387 266.0938 13.12442366262969"
  },
  {
    "name": "ONEWEB-0110",
    "noradId": "47260",
    "line1": "1 47260U 20100C   26155.97159212 -.00000286  00000+0 -83107-3 0  9996",
    "line2": "2 47260  87.8947 353.0719 0001546  80.3434 279.7869 13.12444703263121"
  },
  {
    "name": "ONEWEB-0111",
    "noradId": "47261",
    "line1": "1 47261U 20100D   26156.00208220  .00000508  00000+0  13753-2 0  9990",
    "line2": "2 47261  87.8946 353.0844 0001901  88.9049 271.2297 13.12443574262969"
  },
  {
    "name": "ONEWEB-0114",
    "noradId": "47262",
    "line1": "1 47262U 20100E   26156.03257760 -.00000486  00000+0 -13852-2 0  9994",
    "line2": "2 47262  87.8951 353.0759 0001827 100.5524 259.5810 13.12443519262922"
  },
  {
    "name": "ONEWEB-0117",
    "noradId": "47263",
    "line1": "1 47263U 20100F   26156.02411022 -.00000213  00000+0 -62711-3 0  9994",
    "line2": "2 47263  87.8949 353.0691 0001762  88.2593 271.8738 13.12441683262938"
  },
  {
    "name": "ONEWEB-0118",
    "noradId": "47264",
    "line1": "1 47264U 20100G   26155.98175617  .00000038  00000+0  70623-4 0  9991",
    "line2": "2 47264  87.8948 353.0803 0002001  96.1821 263.9536 13.12443655263123"
  },
  {
    "name": "ONEWEB-0119",
    "noradId": "47265",
    "line1": "1 47265U 20100H   26156.00717730  .00000195  00000+0  50790-3 0  9990",
    "line2": "2 47265  87.8936 353.0930 0001700  88.8373 271.2950 13.12442332263108"
  },
  {
    "name": "ONEWEB-0120",
    "noradId": "47266",
    "line1": "1 47266U 20100J   26156.03102874 -.00000435  00000+0 -12451-2 0  9991",
    "line2": "2 47266  87.8940 353.0892 0001664  95.6109 264.5209 13.12443173263132"
  },
  {
    "name": "ONEWEB-0121",
    "noradId": "47267",
    "line1": "1 47267U 20100K   26156.01903049 -.00000049  00000+0 -17270-3 0  9999",
    "line2": "2 47267  87.8953 353.0767 0001887  78.7972 281.3368 13.12441848263045"
  },
  {
    "name": "ONEWEB-0122",
    "noradId": "47268",
    "line1": "1 47268U 20100L   26156.01310681  .00000348  00000+0  93287-3 0  9996",
    "line2": "2 47268  87.8961 353.0838 0001495  94.7725 265.3575 13.12442398262955"
  },
  {
    "name": "ONEWEB-0123",
    "noradId": "47269",
    "line1": "1 47269U 20100M   26156.00887308  .00000303  00000+0  80553-3 0  9994",
    "line2": "2 47269  87.8942 353.0918 0001883  89.8260 270.3084 13.12442558263099"
  },
  {
    "name": "ONEWEB-0124",
    "noradId": "47270",
    "line1": "1 47270U 20100N   26155.99870970  .00000487  00000+0  13174-2 0  9997",
    "line2": "2 47270  87.8938 353.0964 0001824  84.8689 275.2647 13.12442874262978"
  },
  {
    "name": "ONEWEB-0125",
    "noradId": "47271",
    "line1": "1 47271U 20100P   26155.97667706 -.00000076  00000+0 -24579-3 0  9995",
    "line2": "2 47271  87.8951 353.0830 0002053  84.8003 275.3360 13.12445051263032"
  },
  {
    "name": "ONEWEB-0126",
    "noradId": "47272",
    "line1": "1 47272U 20100Q   26155.99715334  .00000487  00000+0  13174-2 0  9991",
    "line2": "2 47272  87.8948 353.0956 0001700  87.9767 272.1556 13.12442205263105"
  },
  {
    "name": "ONEWEB-0127",
    "noradId": "47273",
    "line1": "1 47273U 20100R   26156.03935396 -.00000303  00000+0 -87836-3 0  9996",
    "line2": "2 47273  87.8942 353.0862 0001775  87.6092 272.5239 13.12443467263132"
  },
  {
    "name": "ONEWEB-0128",
    "noradId": "47274",
    "line1": "1 47274U 20100S   26156.06138013  .00000150  00000+0  38098-3 0  9995",
    "line2": "2 47274  87.8938 353.0961 0001513  82.3819 277.7482 13.12443636263154"
  },
  {
    "name": "ONEWEB-0129",
    "noradId": "47275",
    "line1": "1 47275U 20100T   26155.96480997 -.00000378  00000+0 -10854-2 0  9998",
    "line2": "2 47275  87.8949 353.0879 0001796 124.6284 235.5014 13.12443173263074"
  }
]