OBJECT_NAME,OBJECT_ID,EPOCH,MEAN_MOTION,ECCENTRICITY,INCLINATION,RA_OF_ASC_NODE,ARG_OF_PERICENTER,MEAN_ANOMALY,EPHEMERIS_TYPE,CLASSIFICATION_TYPE,NORAD_CAT_ID,ELEMENT_SET_NO,REV_AT_EPOCH,BSTAR,MEAN_MOTION_DOT,MEAN_MOTION_DDOT
ONEWEB-0068,2020-020Y,2026-06-05T00:31:54.437376,13.11415035,.0001828,87.8906,23.4838,77.0993,283.0339,0,U,45446,999,30100,.19887E-3,.83E-6,0
ONEWEB-0046,2020-020Z,2026-06-05T00:19:53.563296,13.11416808,.0002055,87.8901,23.4923,81.3148,278.8213,0,U,45447,999,30101,.11493E-2,.42E-5,0
ONEWEB-0063,2020-020AA,2026-06-04T15:52:15.167424,13.11419006,.00021026,87.8906,23.5605,94.9954,265.1414,0,U,45448,999,30105,-.14063654E-2,-.486E-5,0
ONEWEB-0019,2020-020AB,2026-06-05T00:07:29.890848,13.11417177,.0001664,87.8901,23.4786,83.7716,276.3601,0,U,45449,999,30094,.1388E-2,.505E-5,0
ONEWEB-0094,2020-020AC,2026-06-04T23:27:10.429056,13.17650376,.0001669,87.9152,8.2770,82.4706,277.6615,0,U,45450,999,30470,.1075E-4,.17E-6,0
ONEWEB-0087,2020-020AD,2026-06-04T16:06:30.407328,13.11417638,.00022128,87.8956,23.5254,66.0551,294.0808,0,U,45451,999,30094,-.21394094E-2,-.746E-5,0
ONEWEB-0082,2020-020AE,2026-06-04T16:01:38.138592,13.11419024,.0002138,87.8887,23.5528,72.4755,287.6606,0,U,45452,999,30103,-.2962008E-3,-.92E-6,0
ONEWEB-0050,2020-020AF,2026-06-04T17:18:08.025408,14.90327118,.0004985,88.9297,234.9022,52.8037,307.3646,0,U,45453,999,33852,.2981E-3,.2918E-4,0
ONEWEB-0034,2020-020AG,2026-06-05T00:13:14.687328,13.10933659,.0001753,87.8904,23.4913,83.8772,276.2556,0,U,45454,999,30099,.15824E-2,.57E-5,0
ONEWEB-0060,2020-020AH,2026-06-05T01:00:09.653760,13.11416544,.0001892,87.8895,23.4835,49.1346,310.9946,0,U,45455,999,30095,-.14686E-2,-.508E-5,0
ONEWEB-0086,2020-020AJ,2026-06-05T00:29:35.644416,13.11442149,.0000949,87.8906,23.4867,76.8918,283.2316,0,U,45456,999,30101,.93957E-2,.3345E-4,0
ONEWEB-0088,2020-020AK,2026-06-04T03:49:23.716992,13.11417195,.00022446,87.8919,23.6256,84.8614,275.2770,0,U,45457,999,30083,.15093481E-2,.548E-5,0
ONEWEB-0102,2020-100A,2026-06-05T00:17:38.882112,13.12443153,.000147,87.8941,353.0975,88.0798,272.0499,0,U,47258,999,26313,.52197E-3,.2E-5,0
ONEWEB-0109,2020-100B,2026-06-05T00:29:50.511264,13.12442366,.0001722,87.8951,353.0782,94.0387,266.0938,0,U,47259,999,26296,-.34386E-3,-.111E-5,0
ONEWEB-0110,2020-100C,2026-06-04T23:19:05.559168,13.12444703,.0001546,87.8947,353.0719,80.3434,279.7869,0,U,47260,999,26312,-.83107E-3,-.286E-5,0
ONEWEB-0111,2020-100D,2026-06-05T00:02:59.902080,13.12443574,.0001901,87.8946,353.0844,88.9049,271.2297,0,U,47261,999,26296,.13753E-2,.508E-5,0
ONEWEB-0114,2020-100E,2026-06-05T00:46:54.704640,13.12443519,.0001827,87.8951,353.0759,100.5524,259.5810,0,U,47262,999,26292,-.13852E-2,-.486E-5,0
ONEWEB-0117,2020-100F,2026-06-05T00:34:43.123008,13.12441683,.0001762,87.8949,353.0691,88.2593,271.8738,0,U,47263,999,26293,-.62711E-3,-.213E-5,0
ONEWEB-0118,2020-100G,2026-06-04T23:33:43.733088,13.12443655,.0002001,87.8948,353.0803,96.1821,263.9536,0,U,47264,999,26312,.70623E-4,.38E-6,0
ONEWEB-0119,2020-100H,2026-06-05T00:10:20.118720,13.12442332,.00017,87.8936,353.0930,88.8373,271.2950,0,U,47265,999,26310,.5079E-3,.195E-5,0
ONEWEB-0120,2020-100J,2026-06-05T00:44:40.883136,13.12443173,.0001664,87.8940,353.0892,95.6109,264.5209,0,U,47266,999,26313,-.12451E-2,-.435E-5,0
ONEWEB-0121,2020-100K,2026-06-05T00:27:24.234336,13.12441848,.0001887,87.8953,353.0767,78.7972,281.3368,0,U,47267,999,26304,-.1727E-3,-.49E-6,0
ONEWEB-0122,2020-100L,2026-06-05T00:18:52.428384,13.12442398,.0001495,87.8961,353.0838,94.7725,265.3575,0,U,47268,999,26295,.93287E-3,.348E-5,0
ONEWEB-0123,2020-100M,2026-06-05T00:12:46.634112,13.12442558,.0001883,87.8942,353.0918,89.8260,270.3084,0,U,47269,999,26309,.80553E-3,.303E-5,0
ONEWEB-0124,2020-100N,2026-06-04T23:58:08.518080,13.12442874,.0001824,87.8938,353.0964,84.8689,275.2647,0,U,47270,999,26297,.13174E-2,.487E-5,0
ONEWEB-0125,2020-100P,2026-06-04T23:26:24.897984,13.12445051,.0002053,87.8951,353.0830,84.8003,275.3360,0,U,47271,999,26303,-.24579E-3,-.76E-6,0
ONEWEB-0126,2020-100Q,2026-06-04T23:55:54.048576,13.12442205,.00017,87.8948,353.0956,87.9767,272.1556,0,U,47272,999,26310,.13174E-2,.487E-5,0
ONEWEB-0127,2020-100R,2026-06-05T00:56:40.182144,13.12443467,.0001775,87.8942,353.0862,87.6092,272.5239,0,U,47273,999,26313,-.87836E-3,-.303E-5,0
ONEWEB-0128,2020-100S,2026-06-05T01:28:23.243232,13.12443636,.0001513,87.8938,353.0961,82.3819,277.7482,0,U,47274,999,26315,.38098E-3,.15E-5,0
ONEWEB-0129,2020-100T,2026-06-04T23:09:19.581408,13.12443173,.0001796,87.8949,353.0879,124.6284,235.5014,0,U,47275,999,26307,-.10854E-2,-.378E-5,0
